[{"OBJECT_NAME":"OBJECT C","OBJECT_ID":"2024-016C","EPOCH":"2026-03-09T22:43:52.910688","MEAN_MOTION":15.23604434,"ECCENTRICITY":0.0010855,"INCLINATION":97.441,"RA_OF_ASC_NODE":150.2614,"ARG_OF_PERICENTER":179.1446,"MEAN_ANOMALY":180.9812,"EPHEMERIS_TYPE":0,"CLASSIFICATION_TYPE":"U","NORAD_CAT_ID":58822,"ELEMENT_SET_NO":999,"REV_AT_EPOCH":11801,"BSTAR":0.0004308258,"MEAN_MOTION_DOT":0.00010264,"MEAN_MOTION_DDOT":0},{"OBJECT_NAME":"CZ-4B R\/B","OBJECT_ID":"2006-046C","EPOCH":"2026-03-09T16:12:15.627168","MEAN_MOTION":15.16904341,"ECCENTRICITY":0.003169,"INCLINATION":97.5596,"RA_OF_ASC_NODE":113.5843,"ARG_OF_PERICENTER":267.3889,"MEAN_ANOMALY":92.3716,"EPHEMERIS_TYPE":0,"CLASSIFICATION_TYPE":"U","NORAD_CAT_ID":29507,"ELEMENT_SET_NO":999,"REV_AT_EPOCH":6004,"BSTAR":0.0003074379,"MEAN_MOTION_DOT":6.066e-5,"MEAN_MOTION_DDOT":0}]
